BEESAT-4                
1 41619U 16040W   22173.86634050  .00013647  00000+0  45299-3 0  9991
2 41619  97.2167 224.3510 0011359  99.2974 260.9553 15.31279092321556
CAS-2T & KS-1Q          
1 41847U 16066G   22173.76811888  .00000887  00000+0  14296-3 0  9992
2 41847  98.5508 238.4345 0363583 193.8045 165.2993 14.38592161295111
NAYIF-1 (EO-88)         
1 42017U 17008BX  22173.84574909  .00015643  00000+0  46538-3 0  9998
2 42017  97.2685 239.8813 0004514 204.4217 155.6813 15.34804192297904
ZHUHAI-1 02 (CAS-4B)    
1 42759U 17034B   22173.87260286  .00004387  00000+0  26383-3 0  9992
2 42759  43.0184 302.8309 0010191 319.1208 186.7665 15.11957893277172
ZHUHAI-1 01 (CAS-4A)    
1 42761U 17034D   22173.84003523  .00003974  00000+0  23968-3 0  9998
2 42761  43.0182 301.7955 0010341 319.4008 175.9319 15.12044867277171
MAX VALIER SAT          
1 42778U 17036P   22173.89337706  .00007587  00000+0  28782-3 0  9999
2 42778  97.2048 214.8074 0008984 313.1434  46.9053 15.27094931277738
RADFXSAT (FOX-1B)       
1 43017U 17073E   22173.64042370  .00002707  00000+0  20670-3 0  9997
2 43017  97.6752  67.6225 0248761 170.5217 190.0821 14.81422017247882
FOX-1D (AO-92)          
1 43137U 18004AC  22173.65664494  .00008690  00000+0  30629-3 0  9995
2 43137  97.3684 248.7660 0006931 356.0177   4.1007 15.29496055247144
DIWATA-2B               
1 43678U 18084H   22173.81407720  .00001281  00000+0  13150-3 0  9997
2 43678  97.9716 307.1421 0008400 267.1856  92.8392 14.92184992198655
ES'HAIL 2               
1 43700U 18090A   22173.87896714  .00000144  00000+0  00000+0 0  9994
2 43700   0.0189  27.0684 0001128  84.4906 141.6752  1.00272237 13086
FOX-1CLIFF (AO-95)      
1 43770U 18099N   22173.87275896  .00002911  00000+0  26115-3 0  9995
2 43770  97.6209 240.0820 0012317 254.9155 105.0704 14.96466354193825
ITASAT 1                
1 43786U 18099AE  22173.73179720  .00002503  00000+0  22445-3 0  9995
2 43786  97.6229 240.8661 0013243 247.1240 112.8584 14.96604243193848
JY1SAT (JO-97)          
1 43803U 18099AX  22173.74782698  .00002631  00000+0  23258-3 0  9995
2 43803  97.6202 240.6387 0012896 246.4333 113.5535 14.97110798193864
UWE-4                   
1 43880U 18111E   22173.47661806  .00002832  00000+0  24342-3 0  9990
2 43880  97.6672  79.6993 0010327 307.9914  52.0375 14.98182599190458
NEXUS (FO-99)           
1 43937U 19003F   22173.66041520  .00012142  00000+0  40696-3 0  9995
2 43937  97.1298 206.8085 0022326 132.4399 227.8736 15.30809207190773
PSAT2 (NO-104)          
1 44354U 19036R   22173.26145666  .00079158 -46961-5  70228-3 0  9994
2 44354  28.5237 145.0168 0227784  24.8333 336.3040 15.40433536165428
JAISAT-1                
1 44419U 19038F   22173.91042816  .00007394  00000+0  37122-3 0  9999
2 44419  97.6354 144.0768 0021291 110.6874 249.6644 15.17401628163886
DUCHIFAT-3              
1 44854U 19089C   22173.82799000  .00003674  00000+0  28729-3 0  9992
2 44854  36.9656  68.4806 0009638 269.9366  90.0269 15.01116243138744
CAS-6 (TO-108)          
1 44881U 19093C   22173.84590163  .00000624  00000+0  85668-4 0  9996
2 44881  97.8926 252.9778 0015315 163.3580 196.8129 14.81735079135571
RS-44 & BREEZE-KM R/B   
1 44909U 19096E   22173.89798719  .00000009  00000+0 -68951-6 0  9998
2 44909  82.5212 226.6584 0216395 307.2060  50.9462 12.79713507116203
ORBITAL FACTORY 2 (OF-2)
1 45113U 19071C   22173.79958264  .00024696  00000+0  50928-3 0  9990
2 45113  51.6400  33.0589 0009999 186.7988 173.2865 15.45690159134200
HUSKYSAT-1 (HO-107)     
1 45119U 19071J   22173.80856574  .00022568  00000+0  48157-3 0  9996
2 45119  51.6397  33.0935 0009840 183.4638 176.6282 15.44741883134195
BY70-2                  
1 45857U 20042B   22173.83562938  .00007204  00000+0  96004-3 0  9990
2 45857  97.9544 250.6241 0012485 101.1235 259.1367 14.79879808106250
SALSAT                  
1 46495U 20068K   22173.81629553  .00001390  00000+0  10351-3 0  9993
2 46495  97.7293 115.1183 0014541 258.3345 101.6249 15.04537974 94991
BY70-3                  
1 46839U 20079N   22173.83521229  .00023745  00000+0  55358-3 0  9994
2 46839  97.1977 245.8586 0003777 318.3264 178.2291 15.42235982 91079
RADFXSAT-2 (AO-109)     
1 47311U 21002C   22173.90917400  .00007170  00000+0  29150-3 0  9990
2 47311  60.6864 341.7090 0017063 340.4252  19.6179 15.25384482 79291
UVSQ-SAT                
1 47438U 21006AB  22173.89153076  .00005407  00000+0  28656-3 0  9994
2 47438  97.4370 232.7901 0010309 252.4762 107.5345 15.15757157 78108
DIY-1 (ARDUIQUBE)       
1 47963U 21022AH  22173.63524337  .00014136  00000+0  78612-3 0  9995
2 47963  97.5319  74.9340 0019131 111.3441 248.9834 15.13628058 67732
XW-3 (CAS-9)            
1 50466U 21131B   22173.87578094  .00000138  00000+0  59600-4 0  9997
2 50466  98.5805 251.1272 0005785 126.4034 233.7687 14.38502694 25693
TEVEL-3                 
1 50988U 22002E   22173.79308892  .00007618  00000+0  41679-3 0  9998
2 50988  97.4814 240.6863 0010735  53.9558  86.0144 15.14489294 24225
TEVEL-8                 
1 50989U 22002F   22173.79040684  .00007579  00000+0  41528-3 0  9990
2 50989  97.4825 240.7010 0010716  53.2646  43.2655 15.14437247 24226
TEVEL-5                 
1 50998U 22002Q   22173.74392947  .00007483  00000+0  40394-3 0  9991
2 50998  97.4803 240.7295 0012142  48.4854  79.3124 15.14962169 24226
TEVEL-6                 
1 50999U 22002R   22173.80355454  .00007489  00000+0  40416-3 0  9992
2 50999  97.4801 240.7872 0012061  48.0247  46.6966 15.14967403 24236
TEVEL-1                 
1 51013U 22002AF  22173.79521579  .00007604  00000+0  41631-3 0  9990
2 51013  97.4807 240.6728 0010573  53.2229  85.8878 15.14465455 24229
TEVEL-7                 
1 51062U 22002CG  22173.84983697  .00007528  00000+0  41262-3 0  9998
2 51062  97.4819 240.7496 0010737  52.0812   0.9984 15.14427769 24239
TEVEL-4                 
1 51063U 22002CH  22173.85027586  .00007506  00000+0  41150-3 0  9998
2 51063  97.4821 240.7486 0010720  51.6267   1.1554 15.14419902 24239
TEVEL-2                 
1 51069U 22002CP  22173.79454404  .00007639  00000+0  41803-3 0  9992
2 51069  97.4804 240.6772 0010663  53.5686  88.7361 15.14481832 24222
